{"type": "FeatureCollection", "features": [ {"type": "Feature", "properties": {"norad_id": 33867, "name": "IRIDIUM 33 DEB", "group": "iridium-33-debris", "lat": -17.4962200153006, "lon": 175.84341864898124, "alt_km": 411.07191498021893, "timestamp": "2025-12-03T19:33:07.362192+00:00", "meta": {"OBJECT_NAME": "IRIDIUM 33 DEB", "OBJECT_ID": "1997-051AL", "EPOCH": "2025-12-03T07:53:15.165600", "MEAN_MOTION": 15.53727826, "ECCENTRICITY": 0.0012182, "INCLINATION": 86.3627, "RA_OF_ASC_NODE": 354.9416, "ARG_OF_PERICENTER": 99.5397, "MEAN_ANOMALY": 260.7241, "EPHEMERIS_TYPE": 0, "CLASSIFICATION_TYPE": "U", "NORAD_CAT_ID": 33867, "ELEMENT_SET_NO": 999, "REV_AT_EPOCH": 89364, "BSTAR": 0.0073072, "MEAN_MOTION_DOT": 0.00497539, "MEAN_MOTION_DDOT": 0}, "tle": {"line1": "1 33867U 97051AL  25337.32864775  .00497539  00000+0  73072-2 0  9998", "line2": "2 33867  86.3627 354.9416 0012182  99.5397 260.7241 15.53727826893647"}}, "geometry": {"type": "Point", "coordinates": [175.84341864898124, -17.4962200153006]}}, {"type": "Feature", "properties": {"norad_id": 33870, "name": "IRIDIUM 33 DEB", "group": "iridium-33-debris", "lat": -18.33113763875282, "lon": 60.882770868808414, "alt_km": 754.7148723894452, "timestamp": "2025-12-03T19:33:07.362202+00:00", "meta": {"OBJECT_NAME": "IRIDIUM 33 DEB", "OBJECT_ID": "1997-051AP", "EPOCH": "2025-12-03T04:49:08.389056", "MEAN_MOTION": 14.45760529, "ECCENTRICITY": 0.00204752, "INCLINATION": 86.3757, "RA_OF_ASC_NODE": 62.349, "ARG_OF_PERICENTER": 209.9044, "MEAN_ANOMALY": 178.6407, "EPHEMERIS_TYPE": 0, "CLASSIFICATION_TYPE": "U", "NORAD_CAT_ID": 33870, "ELEMENT_SET_NO": 999, "REV_AT_EPOCH": 87999, "BSTAR": 0.0011974106, "MEAN_MOTION_DOT": 4.273e-05, "MEAN_MOTION_DDOT": 0}, "tle": {"line1": "1 33870U 97051AP  25337.20079154  .00004273  00000+0  11974-2 0  9990", "line2": "2 33870  86.3757  62.3490 0020475 209.9044 178.6407 14.45760529879997"}}, "geometry": {"type": "Point", "coordinates": [60.882770868808414, -18.33113763875282]}}, {"type": "Feature", "properties": {"norad_id": 33881, "name": "IRIDIUM 33 DEB", "group": "iridium-33-debris", "lat": -48.975760345349315, "lon": -65.21591689466736, "alt_km": 672.9393429949796, "timestamp": "2025-12-03T19:33:07.362213+00:00", "meta": {"OBJECT_NAME": "IRIDIUM 33 DEB", "OBJECT_ID": "1997-051BA", "EPOCH": "2025-12-03T08:52:49.327968", "MEAN_MOTION": 14.56290168, "ECCENTRICITY": 0.0061157, "INCLINATION": 86.3865, "RA_OF_ASC_NODE": 110.812, "ARG_OF_PERICENTER": 205.0667, "MEAN_ANOMALY": 213.9917, "EPHEMERIS_TYPE": 0, "CLASSIFICATION_TYPE": "U", "NORAD_CAT_ID": 33881, "ELEMENT_SET_NO": 999, "REV_AT_EPOCH": 87364, "BSTAR": 0.002603, "MEAN_MOTION_DOT": 0.00011848, "MEAN_MOTION_DDOT": 0}, "tle": {"line1": "1 33881U 97051BA  25337.37001537  .00011848  00000+0  26030-2 0  9995", "line2": "2 33881  86.3865 110.8120 0061157 205.0667 213.9917 14.56290168873642"}}, "geometry": {"type": "Point", "coordinates": [-65.21591689466736, -48.975760345349315]}}, {"type": "Feature", "properties": {"norad_id": 33884, "name": "IRIDIUM 33 DEB", "group": "iridium-33-debris", "lat": -46.30857390159642, "lon": -162.34283665381676, "alt_km": 650.0852449723016, "timestamp": "2025-12-03T19:33:07.362223+00:00", "meta": {"OBJECT_NAME": "IRIDIUM 33 DEB", "OBJECT_ID": "1997-051BD", "EPOCH": "2025-12-03T02:24:03.793824", "MEAN_MOTION": 14.77130142, "ECCENTRICITY": 0.00106894, "INCLINATION": 86.3701, "RA_OF_ASC_NODE": 14.1694, "ARG_OF_PERICENTER": 359.2537, "MEAN_ANOMALY": 29.5165, "EPHEMERIS_TYPE": 0, "CLASSIFICATION_TYPE": "U", "NORAD_CAT_ID": 33884, "ELEMENT_SET_NO": 999, "REV_AT_EPOCH": 88705, "BSTAR": 0.0017255958, "MEAN_MOTION_DOT": 0.0001224, "MEAN_MOTION_DDOT": 0}, "tle": {"line1": "1 33884U 97051BD  25337.10004391  .00012240  00000+0  17256-2 0  9997", "line2": "2 33884  86.3701  14.1694 0010689 359.2537  29.5165 14.77130142887052"}}, "geometry": {"type": "Point", "coordinates": [-162.34283665381676, -46.30857390159642]}}, {"type": "Feature", "properties": {"norad_id": 33886, "name": "IRIDIUM 33 DEB", "group": "iridium-33-debris", "lat": 35.60263360004022, "lon": 73.58050050339783, "alt_km": 773.5328317482445, "timestamp": "2025-12-03T19:33:07.362233+00:00", "meta": {"OBJECT_NAME": "IRIDIUM 33 DEB", "OBJECT_ID": "1997-051BF", "EPOCH": "2025-12-03T07:58:37.156800", "MEAN_MOTION": 14.36032892, "ECCENTRICITY": 0.0012062, "INCLINATION": 86.3832, "RA_OF_ASC_NODE": 71.1878, "ARG_OF_PERICENTER": 277.8221, "MEAN_ANOMALY": 146.0866, "EPHEMERIS_TYPE": 0, "CLASSIFICATION_TYPE": "U", "NORAD_CAT_ID": 33886, "ELEMENT_SET_NO": 999, "REV_AT_EPOCH": 87917, "BSTAR": 0.00031822, "MEAN_MOTION_DOT": 9.45e-06, "MEAN_MOTION_DDOT": 0}, "tle": {"line1": "1 33886U 97051BF  25337.33237450  .00000945  00000+0  31822-3 0  9993", "line2": "2 33886  86.3832  71.1878 0012062 277.8221 146.0866 14.36032892879173"}}, "geometry": {"type": "Point", "coordinates": [73.58050050339783, 35.60263360004022]}}, {"type": "Feature", "properties": {"norad_id": 33887, "name": "IRIDIUM 33 DEB", "group": "iridium-33-debris", "lat": -65.46700170054912, "lon": -0.9005535028586734, "alt_km": 772.4236940598812, "timestamp": "2025-12-03T19:33:07.362244+00:00", "meta": {"OBJECT_NAME": "IRIDIUM 33 DEB", "OBJECT_ID": "1997-051BG", "EPOCH": "2025-12-03T08:13:03.824832", "MEAN_MOTION": 14.37207474, "ECCENTRICITY": 0.0004033, "INCLINATION": 86.3052, "RA_OF_ASC_NODE": 7.4418, "ARG_OF_PERICENTER": 271.7393, "MEAN_ANOMALY": 100.6475, "EPHEMERIS_TYPE": 0, "CLASSIFICATION_TYPE": "U", "NORAD_CAT_ID": 33887, "ELEMENT_SET_NO": 999, "REV_AT_EPOCH": 88030, "BSTAR": 0.00021393, "MEAN_MOTION_DOT": 6.56e-06, "MEAN_MOTION_DDOT": 0}, "tle": {"line1": "1 33887U 97051BG  25337.34240538  .00000656  00000+0  21393-3 0  9997", "line2": "2 33887  86.3052   7.4418 0004033 271.7393 100.6475 14.37207474880302"}}, "geometry": {"type": "Point", "coordinates": [-0.9005535028586734, -65.46700170054912]}}, {"type": "Feature", "properties": {"norad_id": 33953, "name": "IRIDIUM 33 DEB", "group": "iridium-33-debris", "lat": -68.59129900615154, "lon": 48.37401333423488, "alt_km": 728.5632002121756, "timestamp": "2025-12-03T19:33:07.362255+00:00", "meta": {"OBJECT_NAME": "IRIDIUM 33 DEB", "OBJECT_ID": "1997-051BN", "EPOCH": "2025-12-03T05:09:00.715968", "MEAN_MOTION": 14.55157442, "ECCENTRICITY": 0.0018449, "INCLINATION": 86.3853, "RA_OF_ASC_NODE": 57.9126, "ARG_OF_PERICENTER": 131.9522, "MEAN_ANOMALY": 257.615, "EPHEMERIS_TYPE": 0, "CLASSIFICATION_TYPE": "U", "NORAD_CAT_ID": 33953, "ELEMENT_SET_NO": 999, "REV_AT_EPOCH": 88165, "BSTAR": 0.0017324, "MEAN_MOTION_DOT": 7.523e-05, "MEAN_MOTION_DDOT": 0}, "tle": {"line1": "1 33953U 97051BN  25337.21459162  .00007523  00000+0  17324-2 0  9990", "line2": "2 33953  86.3853  57.9126 0018449 131.9522 257.6150 14.55157442881659"}}, "geometry": {"type": "Point", "coordinates": [48.37401333423488, -68.59129900615154]}}, {"type": "Feature", "properties": {"norad_id": 33960, "name": "IRIDIUM 33 DEB", "group": "iridium-33-debris", "lat": -46.64851895476653, "lon": 117.70041048889118, "alt_km": 626.7600920670357, "timestamp": "2025-12-03T19:33:07.362266+00:00", "meta": {"OBJECT_NAME": "IRIDIUM 33 DEB", "OBJECT_ID": "1997-051BV", "EPOCH": "2025-12-03T07:47:15.986976", "MEAN_MOTION": 14.84371452, "ECCENTRICITY": 0.0007026, "INCLINATION": 86.2527, "RA_OF_ASC_NODE": 293.9503, "ARG_OF_PERICENTER": 74.7434, "MEAN_ANOMALY": 54.2273, "EPHEMERIS_TYPE": 0, "CLASSIFICATION_TYPE": "U", "NORAD_CAT_ID": 33960, "ELEMENT_SET_NO": 999, "REV_AT_EPOCH": 88727, "BSTAR": 0.0041779, "MEAN_MOTION_DOT": 0.00035262, "MEAN_MOTION_DDOT": 0}, "tle": {"line1": "1 33960U 97051BV  25337.32449059  .00035262  00000+0  41779-2 0  9996", "line2": "2 33960  86.2527 293.9503 0007026  74.7434  54.2273 14.84371452887272"}}, "geometry": {"type": "Point", "coordinates": [117.70041048889118, -46.64851895476653]}}, {"type": "Feature", "properties": {"norad_id": 33966, "name": "IRIDIUM 33 DEB", "group": "iridium-33-debris", "lat": -59.54690349562256, "lon": -123.9846966170134, "alt_km": 730.124469366594, "timestamp": "2025-12-03T19:33:07.362275+00:00", "meta": {"OBJECT_NAME": "IRIDIUM 33 DEB", "OBJECT_ID": "1997-051CB", "EPOCH": "2025-12-03T05:26:31.517952", "MEAN_MOTION": 14.49526909, "ECCENTRICITY": 0.000637, "INCLINATION": 86.3933, "RA_OF_ASC_NODE": 50.109, "ARG_OF_PERICENTER": 222.6841, "MEAN_ANOMALY": 191.0152, "EPHEMERIS_TYPE": 0, "CLASSIFICATION_TYPE": "U", "NORAD_CAT_ID": 33966, "ELEMENT_SET_NO": 999, "REV_AT_EPOCH": 88304, "BSTAR": 0.00087232, "MEAN_MOTION_DOT": 3.363e-05, "MEAN_MOTION_DDOT": 0}, "tle": {"line1": "1 33966U 97051CB  25337.22675368  .00003363  00000+0  87232-3 0  9997", "line2": "2 33966  86.3933  50.1090 0006370 222.6841 191.0152 14.49526909883048"}}, "geometry": {"type": "Point", "coordinates": [-123.9846966170134, -59.54690349562256]}}, {"type": "Feature", "properties": {"norad_id": 34071, "name": "IRIDIUM 33 DEB", "group": "iridium-33-debris", "lat": -49.71784768128815, "lon": 17.38432643687247, "alt_km": 741.3356320703997, "timestamp": "2025-12-03T19:33:07.362286+00:00", "meta": {"OBJECT_NAME": "IRIDIUM 33 DEB", "OBJECT_ID": "1997-051CE", "EPOCH": "2025-12-03T11:29:50.811648", "MEAN_MOTION": 14.49396054, "ECCENTRICITY": 0.0009487, "INCLINATION": 86.3467, "RA_OF_ASC_NODE": 21.8534, "ARG_OF_PERICENTER": 132.6623, "MEAN_ANOMALY": 227.5382, "EPHEMERIS_TYPE": 0, "CLASSIFICATION_TYPE": "U", "NORAD_CAT_ID": 34071, "ELEMENT_SET_NO": 999, "REV_AT_EPOCH": 88200, "BSTAR": 0.00091118, "MEAN_MOTION_DOT": 3.504e-05, "MEAN_MOTION_DDOT": 0}, "tle": {"line1": "1 34071U 97051CE  25337.47906032  .00003504  00000+0  91118-3 0  9992", "line2": "2 34071  86.3467  21.8534 0009487 132.6623 227.5382 14.49396054882007"}}, "geometry": {"type": "Point", "coordinates": [17.38432643687247, -49.71784768128815]}}]}